{
    "links": {
        "self": "http://www.neowsapp.com/rest/v1/neo/3378130?api_key=iIulBulltgU6a56xZRHN4H3l9WmuAYTsLGpBGhQ2"
    },
    "id": "3378130",
    "neo_reference_id": "3378130",
    "name": "(2007 KF7)",
    "designation": "2007 KF7",
    "nasa_jpl_url": "http://ssd.jpl.nasa.gov/sbdb.cgi?sstr=3378130",
    "absolute_magnitude_h": 24.9,
    "estimated_diameter": {
        "kilometers": {
            "estimated_diameter_min": 0.0278326768,
            "estimated_diameter_max": 0.0622357573
        },
        "meters": {
            "estimated_diameter_min": 27.8326768072,
            "estimated_diameter_max": 62.2357573367
        },
        "miles": {
            "estimated_diameter_min": 0.0172944182,
            "estimated_diameter_max": 0.0386714948
        },
        "feet": {
            "estimated_diameter_min": 91.3145593761,
            "estimated_diameter_max": 204.1855621004
        }
    },
    "is_potentially_hazardous_asteroid": false,
    "close_approach_data": [
        {
            "close_approach_date": "2007-05-26",
            "close_approach_date_full": "2007-May-26 19:23",
            "epoch_date_close_approach": 1180207380000,
            "relative_velocity": {
                "kilometers_per_second": "8.1570313472",
                "kilometers_per_hour": "29365.3128498489",
                "miles_per_hour": "18246.4634205075"
            },
            "miss_distance": {
                "astronomical": "0.0423838515",
                "lunar": "16.4873182335",
                "kilometers": "6340533.906796305",
                "miles": "3939825.077566809"
            },
            "orbiting_body": "Earth"
        }
    ],
    "orbital_data": {
        "orbit_id": "6",
        "orbit_determination_date": "2017-04-06 09:06:24",
        "first_observation_date": "2007-05-25",
        "last_observation_date": "2007-05-27",
        "data_arc_in_days": 2,
        "observations_used": 26,
        "orbit_uncertainty": "8",
        "minimum_orbit_intersection": ".0421594",
        "jupiter_tisserand_invariant": "4.067",
        "epoch_osculation": "2454247.5",
        "eccentricity": ".3862830304883506",
        "semi_major_axis": "1.717704210809649",
        "inclination": "11.85790067371892",
        "ascending_node_longitude": "64.04342348325373",
        "orbital_period": "822.2824047652634",
        "perihelion_distance": "1.054184222775497",
        "perihelion_argument": "185.5650360306696",
        "aphelion_distance": "2.381224198843801",
        "perihelion_time": "2454251.322351075605",
        "mean_anomaly": "358.32655255756",
        "mean_motion": ".4378057926495083",
        "equinox": "J2000",
        "orbit_class": {
            "orbit_class_type": "AMO",
            "orbit_class_description": "Near-Earth asteroid orbits similar to that of 1221 Amor",
            "orbit_class_range": "1.017 AU < q (perihelion) < 1.3 AU"
        }
    },
    "is_sentry_object": false
}